OBJECT_NAME,OBJECT_ID,EPOCH,MEAN_MOTION,ECCENTRICITY,INCLINATION,RA_OF_ASC_NODE,ARG_OF_PERICENTER,MEAN_ANOMALY,EPHEMERIS_TYPE,CLASSIFICATION_TYPE,NORAD_CAT_ID,ELEMENT_SET_NO,REV_AT_EPOCH,BSTAR,MEAN_MOTION_DOT,MEAN_MOTION_DDOT
INTELSAT 902 (IS-902),2001-039A,2026-07-11T11:36:37.992384,1.00271111,.00044247,6.1764,71.4854,35.9335,306.0222,0,U,26900,999,9093,0,-.284E-5,0
INTELSAT 904 (IS-904),2002-007A,2026-07-11T09:59:11.415840,1.00271577,.00054002,6.9777,68.8900,23.3585,315.4057,0,U,27380,999,5200,0,-.226E-5,0
DIRECTV 5 (TEMPO 1),2002-023A,2026-07-11T14:44:45.087936,1.00271016,.00030154,4.9374,75.0044,41.5746,284.0173,0,U,27426,999,8836,0,-.57E-6,0
INTELSAT 905 (IS-905),2002-027A,2026-07-11T18:02:21.358176,1.00270760,.00034504,6.8125,69.5005,44.4109,309.1256,0,U,27438,999,5160,0,.91E-6,0
GALAXY 3C (G-3C),2002-030A,2026-07-11T14:48:44.705376,1.00270798,.00014999,3.7938,77.6586,38.3399,300.8819,0,U,27445,999,4673,0,-.151E-5,0
INTELSAT 906 (IS-906),2002-041A,2026-07-11T15:34:28.528320,1.00272426,.00039368,5.8626,72.6201,20.3459,134.3399,0,U,27513,999,8727,0,.12E-6,0
GALAXY 13 (HORIZONS-1),2003-044A,2026-07-11T17:58:44.204736,1.00269804,.00022051,1.4809,83.5516,22.7246,303.0523,0,U,27954,999,4681,0,.136E-5,0
INTELSAT 10-02,2004-022A,2026-07-11T13:33:03.134304,1.00269529,.00004317,0.0505,259.1253,347.6547,244.9427,0,U,28358,999,8080,0,-.6E-7,0
DIRECTV 8,2005-019A,2026-07-11T16:24:35.711424,1.00271011,.00030238,0.0189,74.7854,50.6733,291.2238,0,U,28659,999,7731,0,.6E-7,0
GALAXY 28 (G-28),2005-022A,2026-07-11T18:33:48.342816,1.00270442,.0002077,3.3594,78.6243,35.7057,66.6913,0,U,28702,999,5222,0,-.199E-5,0
GALAXY 16 (G-16),2006-023A,2026-07-11T16:30:27.648864,1.00271267,.00024384,0.0360,114.5556,5.6308,318.0191,0,U,29236,999,7321,0,-.122E-5,0
DIRECTV 9S,2006-043A,2026-07-11T14:47:14.849376,1.00270966,.00049875,2.4810,80.6077,32.5564,296.9675,0,U,29494,999,5162,0,-.111E-5,0
GALAXY 17 (G-17),2007-016B,2026-07-11T13:09:12.918816,1.00270744,.00035535,3.0305,79.5932,32.7314,289.4088,0,U,31307,999,7004,0,-.204E-5,0
INTELSAT 11 (IS-11),2007-044B,2026-07-11T06:48:29.508768,0.99050871,.00040334,3.6253,78.3769,99.9035,232.8124,0,U,32253,999,6868,0,-.59E-6,0
HORIZONS-2,2007-063B,2026-07-11T18:20:27.123648,1.00270298,.00035433,2.6627,80.3243,18.1468,32.5118,0,U,32388,999,6806,0,-.252E-5,0
DIRECTV 11,2008-013A,2026-07-11T14:47:52.289088,1.00272228,.00001525,0.0131,264.0793,268.8149,239.4093,0,U,32729,999,4583,0,-.12E-5,0
GALAXY 18 (G-18),2008-024A,2026-07-11T18:06:20.975616,1.00270290,.0002801,0.0279,47.9198,78.7436,311.5850,0,U,32951,999,4609,0,0,0
GALAXY 19 (G-19),2008-045A,2026-07-11T16:30:57.601152,1.00272177,.0002327,0.0534,246.1007,233.9818,320.2425,0,U,33376,999,6514,0,-.134E-5,0
FM-5,2009-034A,2026-07-11T14:51:36.929952,1.00270459,.00006805,0.0382,274.2458,60.5782,91.4390,0,U,35493,999,4688,0,-.195E-5,0
INTELSAT 14 (IS-14),2009-064A,2026-07-11T16:45:48.677184,1.00271191,.0002225,0.0169,30.9146,85.0476,20.1049,0,U,36097,999,6085,0,-.269E-5,0
INTELSAT 15 (IS-15),2009-067A,2026-07-11T17:24:33.922368,1.00271240,.00021024,0.0140,58.1521,60.5894,157.1810,0,U,36106,999,4147,0,-.18E-5,0
DIRECTV 12,2009-075A,2026-07-11T14:46:52.385376,1.00271942,.00003384,0.0094,118.0139,95.9566,194.5362,0,U,36131,999,4679,0,-.98E-6,0
INTELSAT 16 (IS-16),2010-006A,2026-07-11T18:19:34.707360,1.00270962,.00022752,0.0114,31.2317,104.5623,352.5648,0,U,36397,999,5990,0,-.24E-5,0
XM-5,2010-053A,2026-07-11T08:51:54.089856,1.00271440,.00018016,0.0631,266.8044,317.5891,82.6642,0,U,37185,999,5772,0,-.17E-6,0
INTELSAT 17 (IS-17),2010-065B,2026-07-11T15:43:04.249920,1.00271935,.00026402,0.0188,91.3792,24.5414,115.3989,0,U,37238,999,5349,0,.4E-7,0
INTELSAT 28 (IS-28),2011-016A,2026-07-11T18:32:25.975104,1.00271817,.00036773,1.8670,82.3161,38.6451,55.1010,0,U,37392,999,5353,0,-.222E-5,0
INTELSAT 18 (IS-18),2011-056A,2026-07-11T17:50:07.531008,1.00272881,.00017213,0.0213,296.1403,191.8031,249.2368,0,U,37834,999,5405,0,.58E-6,0
INTELSAT 22 (IS-22),2012-011A,2026-07-11T16:53:30.984576,1.00271188,.00019346,0.0392,69.3858,63.5686,122.1201,0,U,38098,999,743,0,0,0
INTELSAT 19 (IS-19),2012-030A,2026-07-11T17:46:07.912704,1.00271070,.0003072,0.0147,39.7279,84.6687,237.7768,0,U,38356,999,5069,0,-.52E-6,0
INTELSAT 20 (IS-20),2012-043A,2026-07-11T21:38:38.792832,1.00279880,.0003753,0.0122,62.5753,345.9835,274.4518,0,U,38740,999,5099,0,-.23E-6,0
INTELSAT 21 (IS-21),2012-045A,2026-07-11T16:42:04.036320,1.00271034,.00017167,0.0030,104.5339,28.8141,348.7624,0,U,38749,999,5077,0,-.28E-5,0
